#aV2008  7 25  0  0   .00000000      96 DD+AD WGS84 FIT  NGA
## 1489 432000.00000000   900.00000000 54672  .0000000000000
+   31     2  3  4  5  6  7  8  9 10 11 12 13 14 15 16 17 18
+         19 20 21 22 23 24 25 26 27 28 29 30 31 32  0  0  0
+          0  0  0  0  0  0  0  0  0  0  0  0  0  0  0  0  0
+          0  0  0  0  0  0  0  0  0  0  0  0  0  0  0  0  0
+          0  0  0  0  0  0  0  0  0  0  0  0  0  0  0  0  0
++         0  0  0  0  0  0  0  0  0  0  0  0  0  0  0  0  0
++         0  0  0  0  0  0  0  0  0  0  0  0  0  0  0  0  0
++         0  0  0  0  0  0  0  0  0  0  0  0  0  0  0  0  0
++         0  0  0  0  0  0  0  0  0  0  0  0  0  0  0  0  0
++         0  0  0  0  0  0  0  0  0  0  0  0  0  0  0  0  0
%c cc cc ccc ccc cccc cccc cccc cccc ccccc ccccc ccccc ccccc
%c cc cc ccc ccc cccc cccc cccc cccc ccccc ccccc ccccc ccccc
%f  0.0000000  0.000000000  0.00000000000  0.000000000000000
%f  0.0000000  0.000000000  0.00000000000  0.000000000000000
%i    0    0    0    0      0      0      0      0         0
%i    0    0    0    0      0      0      0      0         0
/*      NGA, ST. LOUIS,MO.                                  
/*   EPHEMERIS COMPUTED FROM  3 DAYS OF DATA                
/* CCCCCCCCCCCCCCCCCCCCCCCCCCCCCCCCCCCCCCCCCCCCCCCCCCCCCCCCC
/* CCCCCCCCCCCCCCCCCCCCCCCCCCCCCCCCCCCCCCCCCCCCCCCCCCCCCCCCC
*  2008  7 25  3 15   .00000000                                                 
P  2 -13272.086141 -23214.493061    927.347149    199.679204                    
V  2   3324.599119   -447.809449  31082.816557      -.025777                    
P  3  15069.879254  12243.455125 -18533.500727    260.361403                    
V  3 -22634.874782   4401.909102 -15365.812854       .052434                    
P  4  -4218.624530 -23477.541610  11184.416990   -124.273725                    
V  4  10068.843116  10949.349330  26906.687454      -.100334                    
P  5 -17546.493874   6147.053712  18634.315800   -341.755802                    
V  5   8308.343997 -22965.390414  15307.633385      -.305361                    
P  6   9681.241386  14299.476771 -19983.832779    163.638472                    
V  6 -25803.650737   2663.417856 -10507.756248       .027647                    
P  7  13645.988834  -6725.892792 -21804.954020       .345190                    
V  7  13995.132813  23791.833138   1339.862908       .050636                    
P  8   5169.518790 -17578.648994 -19124.927564   -163.144583                    
V  8  12329.165609  20884.108760 -16399.512363      -.015402                    
P  9 -18818.626208  -9901.220417  15362.465638      6.837846                    
V  9  -9579.177954 -18329.224019 -22477.969378       .017623                    
P 10  -6279.953707 -16485.092555 -19891.781942     -3.200783                    
V 10  13922.488386 -20867.217590  13305.674630      -.003491                    
P 11  21133.769961   5040.159172  15325.947551     22.781851                    
V 11  10866.828087  16926.575304 -20004.238273      -.006054                    
P 12 -16729.582842    453.753104  20682.686641   -356.296857                    
V 12  12056.737520 -23153.990172  10398.688255       .008852                    
P 13  23206.242467  -6467.607966 -11291.936929    265.118882                    
V 13  14046.849706   1971.076066  28046.248297       .014786                    
P 14  -7500.924250  13934.596160  21412.593773   -240.212889                    
V 14 -26877.840960  -1075.488317  -8862.168953       .044616                    
P 15 -22714.473042  -7558.365633 -11495.440943   -148.453131                    
V 15  14570.977250  -2822.501784 -26872.621878      -.063937                    
P 16   1464.375221  20384.010408 -16783.607594    115.440666                    
V 16 -12479.387433  17612.249650  20424.317525      -.017535                    
P 17   6599.399570 -14765.695968  21084.896880     38.748778                    
V 17  26704.238509    821.382447  -7960.434881       .000863                    
P 18 -17570.680448  17937.431795  -7868.954352   -152.594285                    
V 18   2524.849446 -10607.769389 -29479.524933       .042890                    
P 19  23037.232676   8566.953172 -10235.573769     33.951873                    
V 19 -13180.298140   1689.902515 -27826.252395       .004589                    
P 20  17493.853424  -2565.555211  19697.101916    109.179216                    
V 20 -10821.334883  22928.099047  12554.844761      -.008162                    
P 21 -10973.127944  11814.988031 -20819.252156     56.869359                    
V 21 -14119.865561 -23151.148584  -6255.906846      -.012876                    
P 22 -10606.768552  23851.168005   4879.757086    211.457040                    
V 22  -5955.143674   3401.382922 -30618.138307      -.000947                    
P 23  26703.761960   -155.044618     76.580393    365.930517                    
V 23   -158.368145   2265.691318  31813.681456       .017953                    
P 24 -17276.788944  -2657.868929 -19752.684179    112.008320                    
V 24 -10644.348177 -23273.968723  12608.163765       .027903                    
P 25  17065.689031    -24.890668 -19949.025134   -200.894029                    
V 25  14446.931067  21841.856723  12290.520110      -.121685                    
P 26 -19527.125788 -10709.726633 -15365.236207    298.382320                    
V 26  18376.104342   -153.088224 -23510.411076       .066071                    
P 27  11277.768522  -9513.574440 -21410.220797    205.181526                    
V 27  16326.442684  23712.409120  -2002.325797       .027281                    
P 28  11148.681282 -23667.590910   3759.281983    -21.345839                    
V 28   4729.611102  -2224.628923 -31578.808227      -.003665                    
P 29 -24835.909887   5156.626227  -7702.480835    -41.063149                    
V 29  -9922.987340  -2818.528294  29686.903241       .005823                    
P 30 -17773.613327  14627.707902  12816.329423     87.657483                    
V 30   5266.012418 -16288.499256  25307.790018       .019755                    
P 31   6213.376526  23829.268288  10008.276108    -24.938779                    
V 31  -8378.870764  -9488.363282  28468.942312      -.001131                    
P 32  14044.502222   6315.564348  22063.693569    309.419140                    
V 32 -14906.495008  22478.998165   3288.253367       .026331                    
EOF
